{
    "links": {
        "self": "http://www.neowsapp.com/rest/v1/neo/3559841?api_key=iIulBulltgU6a56xZRHN4H3l9WmuAYTsLGpBGhQ2"
    },
    "id": "3559841",
    "neo_reference_id": "3559841",
    "name": "(2011 EN51)",
    "designation": "2011 EN51",
    "nasa_jpl_url": "http://ssd.jpl.nasa.gov/sbdb.cgi?sstr=3559841",
    "absolute_magnitude_h": 22.2,
    "estimated_diameter": {
        "kilometers": {
            "estimated_diameter_min": 0.096506147,
            "estimated_diameter_max": 0.2157943048
        },
        "meters": {
            "estimated_diameter_min": 96.5061469579,
            "estimated_diameter_max": 215.7943048444
        },
        "miles": {
            "estimated_diameter_min": 0.059966121,
            "estimated_diameter_max": 0.134088323
        },
        "feet": {
            "estimated_diameter_min": 316.6212271853,
            "estimated_diameter_max": 707.9865871058
        }
    },
    "is_potentially_hazardous_asteroid": false,
    "close_approach_data": [
        {
            "close_approach_date": "2011-03-04",
            "close_approach_date_full": "2011-Mar-04 16:31",
            "epoch_date_close_approach": 1299256260000,
            "relative_velocity": {
                "kilometers_per_second": "21.6772404079",
                "kilometers_per_hour": "78038.065468368",
                "miles_per_hour": "48489.8190683868"
            },
            "miss_distance": {
                "astronomical": "0.0633950153",
                "lunar": "24.6606609517",
                "kilometers": "9483759.257497411",
                "miles": "5892934.7435938318"
            },
            "orbiting_body": "Earth"
        },
        {
            "close_approach_date": "2097-02-14",
            "close_approach_date_full": "2097-Feb-14 12:54",
            "epoch_date_close_approach": 4011684840000,
            "relative_velocity": {
                "kilometers_per_second": "21.3284512178",
                "kilometers_per_hour": "76782.4243841002",
                "miles_per_hour": "47709.6125291093"
            },
            "miss_distance": {
                "astronomical": "0.1121331452",
                "lunar": "43.6197934828",
                "kilometers": "16774879.678320724",
                "miles": "10423426.8913810312"
            },
            "orbiting_body": "Venus"
        },
        {
            "close_approach_date": "2097-03-07",
            "close_approach_date_full": "2097-Mar-07 16:42",
            "epoch_date_close_approach": 4013512920000,
            "relative_velocity": {
                "kilometers_per_second": "23.3242948533",
                "kilometers_per_hour": "83967.4614719574",
                "miles_per_hour": "52174.1151573949"
            },
            "miss_distance": {
                "astronomical": "0.12057605",
                "lunar": "46.90408345",
                "kilometers": "18037920.2530135",
                "miles": "11208243.9120463"
            },
            "orbiting_body": "Earth"
        }
    ],
    "orbital_data": {
        "orbit_id": "7",
        "orbit_determination_date": "2017-04-06 08:54:08",
        "first_observation_date": "2011-03-11",
        "last_observation_date": "2011-03-25",
        "data_arc_in_days": 14,
        "observations_used": 27,
        "orbit_uncertainty": "9",
        "minimum_orbit_intersection": ".00333917",
        "jupiter_tisserand_invariant": "4.205",
        "epoch_osculation": "2455635.5",
        "eccentricity": ".6308898691501047",
        "semi_major_axis": "1.541105171284825",
        "inclination": "10.96574836623422",
        "ascending_node_longitude": "159.4156143319135",
        "orbital_period": "698.7902608094931",
        "perihelion_distance": ".5688375314263922",
        "perihelion_argument": "265.256175881395",
        "aphelion_distance": "2.513372811143258",
        "perihelion_time": "2455575.779235482841",
        "mean_anomaly": "30.76670702489728",
        "mean_motion": ".5151760409238797",
        "equinox": "J2000",
        "orbit_class": {
            "orbit_class_type": "APO",
            "orbit_class_description": "Near-Earth asteroid orbits which cross the Earth’s orbit similar to that of 1862 Apollo",
            "orbit_class_range": "a (semi-major axis) > 1.0 AU; q (perihelion) < 1.017 AU"
        }
    },
    "is_sentry_object": false
}